NORAD_CAT_ID,OBJECT_NAME,OBJECT_TYPE,EPOCH,MEAN_MOTION,ECCENTRICITY,INCLINATION,RA_OF_ASC_NODE,ARG_OF_PERICENTER,MEAN_ANOMALY,BSTAR,MEAN_MOTION_DOT,MEAN_MOTION_DDOT,TLE_LINE0,TLE_LINE1,TLE_LINE2,SEMIMAJOR_AXIS,PERIOD,APOGEE,PERIGEE,DECAYED
55931.0,STARLINK-5897,PAYLOAD,2024-04-10 20:40:48,14.98328142,0.0003048,69.9985,263.7488,270.1111,89.9699,-1.3661e-05,-2.56e-06,0.0,0 STARLINK-5897,1 55931U 23037T   24101.86166730 -.00000256  00000-0 -13661-4 0  9999,2 55931  69.9985 263.7488 0003048 270.1111  89.9699 14.98328142 58967,6950.199,96.107,574.182,569.945,0.0
55931.0,STARLINK-5897,PAYLOAD,2024-04-11 04:41:28,14.98329575,0.0003037,69.9983,262.9069,270.2132,89.8679,5.0657e-06,-3.3e-07,0.0,0 STARLINK-5897,1 55931U 23037T   24102.19546619 -.00000033  00000-0  50657-5 0  9993,2 55931  69.9983 262.9069 0003037 270.2132  89.8679 14.98329575 59355,6950.194,96.107,574.17,569.948,0.0
55931.0,STARLINK-5897,PAYLOAD,2024-04-11 14:18:16,14.98331619,0.0003054,69.9988,261.8969,270.238,89.8429,2.4626e-05,2.01e-06,0.0,0 STARLINK-5897,1 55931U 23037T   24102.59602405  .00000201  00000-0  24626-4 0  9995,2 55931  69.9988 261.8969 0003054 270.2380  89.8429 14.98331619 59075,6950.188,96.107,574.175,569.93,0.0
55931.0,STARLINK-5897,PAYLOAD,2024-04-11 20:42:48,14.98332984,0.000309,69.9991,261.2238,271.0208,89.0597,5.9817e-05,6.21e-06,0.0,0 STARLINK-5897,1 55931U 23037T   24102.86306179  .00000621  00000-0  59817-4 0  9990,2 55931  69.9991 261.2238 0003090 271.0208  89.0597 14.98332984 59119,6950.184,96.107,574.196,569.901,0.0
55931.0,STARLINK-5897,PAYLOAD,2024-04-12 12:44:09,14.98328747,0.0003055,69.9995,259.5405,271.4474,88.6335,3.2703e-05,2.97e-06,0.0,0 STARLINK-5897,1 55931U 23037T   24103.53066471  .00000297  00000-0  32703-4 0  9997,2 55931  69.9995 259.5405 0003055 271.4474  88.6335 14.98328747 59554,6950.197,96.107,574.185,569.938,0.0
55931.0,STARLINK-5897,PAYLOAD,2024-04-12 14:20:17,14.98328962,0.0003055,69.9995,259.3722,271.4501,88.6309,3.4081e-05,3.14e-06,0.0,0 STARLINK-5897,1 55931U 23037T   24103.59742455  .00000314  00000-0  34081-4 0  9997,2 55931  69.9995 259.3722 0003055 271.4501  88.6309 14.98328962 59229,6950.196,96.107,574.184,569.938,0.0
55931.0,STARLINK-5897,PAYLOAD,2024-04-13 12:46:10,14.98331555,0.0003002,69.9998,257.0157,273.2357,86.8459,-1.3954e-05,-2.6e-06,0.0,0 STARLINK-5897,1 55931U 23037T   24104.53206359 -.00000260  00000-0 -13954-4 0  9998,2 55931  69.9998 257.0157 0003002 273.2357  86.8459 14.98331555 59701,6950.188,96.107,574.14,569.967,0.0
55931.0,STARLINK-5897,PAYLOAD,2024-04-13 14:22:18,14.98331472,0.0003003,69.9998,256.8474,273.2158,86.8658,-1.4477e-05,-2.66e-06,0.0,0 STARLINK-5897,1 55931U 23037T   24104.59882356 -.00000266  00000-0 -14477-4 0  9998,2 55931  69.9998 256.8474 0003003 273.2158  86.8658 14.98331472 59372,6950.188,96.107,574.14,569.966,0.0
55931.0,STARLINK-5897,PAYLOAD,2024-04-13 19:10:42,14.98333846,0.000297,70.0,256.343,270.5543,89.5276,6.9885e-07,-8.5e-07,0.0,0 STARLINK-5897,1 55931U 23037T   24104.79910107 -.00000085  00000-0  69885-6 0  9999,2 55931  70.0000 256.3430 0002970 270.5543  89.5276 14.98333846 59403,6950.181,96.107,574.11,569.982,0.0
55931.0,STARLINK-5897,PAYLOAD,2024-04-14 12:48:11,14.98329444,0.0002916,69.9998,254.4906,266.2418,93.8408,-1.1546e-05,-2.31e-06,0.0,0 STARLINK-5897,1 55931U 23037T   24105.53346288 -.00000231  00000-0 -11546-4 0  9998,2 55931  69.9998 254.4906 0002916 266.2418  93.8408 14.98329444 59859,6950.195,96.107,574.086,570.033,0.0
55931.0,STARLINK-5897,PAYLOAD,2024-04-14 19:12:43,14.98333222,0.0002835,70.0002,253.8178,263.4766,96.6071,2.9998e-05,2.65e-06,0.0,0 STARLINK-5897,1 55931U 23037T   24105.80049901  .00000265  00000-0  29998-4 0  9995,2 55931  70.0002 253.8178 0002835 263.4766  96.6071 14.98333222 59550,6950.183,96.107,574.018,570.078,0.0
55931.0,STARLINK-5897,PAYLOAD,2024-04-15 12:50:11,14.98331657,0.0002785,70.0005,251.9665,262.0013,98.083,2.0682e-05,1.54e-06,0.0,0 STARLINK-5897,1 55931U 23037T   24106.53485884  .00000154  00000-0  20682-4 0  9998,2 55931  70.0005 251.9665 0002785 262.0013  98.0830 14.98331657 60008,6950.188,96.107,573.988,570.117,0.0
55931.0,STARLINK-5897,PAYLOAD,2024-04-15 14:26:19,14.98331647,0.0002782,70.0005,251.7982,261.8482,98.2362,2.064e-05,1.53e-06,0.0,0 STARLINK-5897,1 55931U 23037T   24106.60161875  .00000153  00000-0  20640-4 0  9990,2 55931  70.0005 251.7982 0002782 261.8482  98.2362 14.98331647 59674,6950.188,96.107,573.986,570.119,0.0
55931.0,STARLINK-5897,PAYLOAD,2024-04-15 19:14:43,14.98332878,0.0002751,70.0007,251.2934,260.8986,99.1861,3.495e-05,3.24e-06,0.0,0 STARLINK-5897,1 55931U 23037T   24106.80189718  .00000324  00000-0  34950-4 0  9997,2 55931  70.0007 251.2934 0002751 260.8986  99.1861 14.98332878 59707,6950.184,96.107,573.961,570.137,0.0
55931.0,STARLINK-5897,PAYLOAD,2024-04-16 12:52:12,14.98329803,0.0002835,70.0005,249.4405,268.0305,92.053,1.0668e-05,3.4e-07,0.0,0 STARLINK-5897,1 55931U 23037T   24107.53625903  .00000034  00000-0  10668-4 0  9997,2 55931  70.0005 249.4405 0002835 268.0305  92.0530 14.98329803 60155,6950.194,96.107,574.029,570.088,0.0
55931.0,STARLINK-5897,PAYLOAD,2024-04-16 14:28:20,14.98330471,0.0002827,70.0005,249.2721,267.9869,92.0966,2.1973e-05,1.69e-06,0.0,0 STARLINK-5897,1 55931U 23037T   24107.60301827  .00000169  00000-0  21973-4 0  9991,2 55931  70.0005 249.2721 0002827 267.9869  92.0966 14.98330471 59826,6950.191,96.107,574.021,570.092,0.0
55931.0,STARLINK-5897,PAYLOAD,2024-04-16 19:16:44,14.98339944,0.0002611,70.001,248.7699,261.6539,98.4324,0.00010268,1.133e-05,0.0,0 STARLINK-5897,1 55931U 23037T   24107.80328885  .00001133  00000-0  10268-3 0  9992,2 55931  70.0010 248.7699 0002611 261.6539  98.4324 14.98339944 60190,6950.162,96.106,573.842,570.212,0.0
55931.0,STARLINK-5897,PAYLOAD,2024-04-17 12:54:14,14.9832161,0.0003239,69.9994,246.9153,276.9611,83.118,-0.0001606,-2.008e-05,0.0,0 STARLINK-5897,1 55931U 23037T   24108.53766798 -.00002008  00000-0 -16060-3 0  9992,2 55931  69.9994 246.9153 0003239 276.9611  83.1180 14.98321610 60305,6950.219,96.108,574.335,569.833,0.0
55931.0,STARLINK-5897,PAYLOAD,2024-04-17 14:30:22,14.98316129,0.0002786,70.0004,246.7474,274.8309,85.2532,-0.00019023,-2.361e-05,0.0,0 STARLINK-5897,1 55931U 23037T   24108.60443266 -.00002361  00000-0 -19023-3 0  9996,2 55931  70.0004 246.7474 0002786 274.8309  85.2532 14.98316129 59975,6950.236,96.108,574.037,570.164,0.0
55931.0,STARLINK-5897,PAYLOAD,2024-04-17 19:18:46,14.98324136,0.0003048,70.0,246.243,272.4533,87.6277,-0.00012498,-1.584e-05,0.0,0 STARLINK-5897,1 55931U 23037T   24108.80470635 -.00001584  00000-0 -12498-3 0  9993,2 55931  70.0000 246.2430 0003048 272.4533  87.6277 14.98324136 60008,6950.211,96.107,574.194,569.958,0.0
55931.0,STARLINK-5897,PAYLOAD,2024-04-18 12:56:15,14.98328696,0.000298,69.9999,244.3904,277.544,82.5381,-7.707e-06,-1.85e-06,0.0,0 STARLINK-5897,1 55931U 23037T   24109.53906275 -.00000185  00000-0 -77070-5 0  9993,2 55931  69.9999 244.3904 0002980 277.5440  82.5381 14.98328696 60458,6950.197,96.107,574.133,569.991,0.0
55931.0,STARLINK-5897,PAYLOAD,2024-04-18 19:20:46,14.98340108,0.0002873,70.0006,243.7205,270.3885,89.6945,8.6041e-05,9.34e-06,0.0,0 STARLINK-5897,1 55931U 23037T   24109.80609183  .00000934  00000-0  86041-4 0  9998,2 55931  70.0006 243.7205 0002873 270.3885  89.6945 14.98340108 60492,6950.162,96.106,574.023,570.03,0.0
55931.0,STARLINK-5897,PAYLOAD,2024-04-19 12:58:15,14.98321101,0.0002081,70.0026,241.869,262.05,98.0423,0.00018102,2.067e-05,0.0,0 STARLINK-5897,1 55931U 23037T   24110.54046128  .00002067  00000-0  18102-3 0  9996,2 55931  70.0026 241.8690 0002081 262.0500  98.0423 14.98321101 60604,6950.22,96.108,573.532,570.639,0.0
55931.0,STARLINK-5897,PAYLOAD,2024-04-19 14:34:23,14.98320952,0.0002368,70.0024,241.7009,266.4851,93.6037,0.00019215,2.2e-05,0.0,0 STARLINK-5897,1 55931U 23037T   24110.60722124  .00002200  00000-0  19215-3 0  9995,2 55931  70.0024 241.7009 0002368 266.4851  93.6037 14.98320952 60278,6950.221,96.108,573.732,570.44,0.0
55931.0,STARLINK-5897,PAYLOAD,2024-04-19 17:46:39,14.9832555,0.0002151,70.0025,241.364,264.3448,95.7466,0.00022655,2.611e-05,0.0,0 STARLINK-5897,1 55931U 23037T   24110.74073789  .00002611  00000-0  22655-3 0  9994,2 55931  70.0025 241.3640 0002151 264.3448  95.7466 14.98325550 60295,6950.207,96.107,573.567,570.577,0.0
55931.0,STARLINK-5897,PAYLOAD,2024-04-20 13:00:16,14.98332642,0.0002356,70.0024,239.346,250.5408,109.5497,-5.5422e-05,-7.54e-06,0.0,0 STARLINK-5897,1 55931U 23037T   24111.54185952 -.00000754  00000-0 -55422-4 0  9996,2 55931  70.0024 239.3460 0002356 250.5408 109.5497 14.98332642 60750,6950.185,96.107,573.687,570.412,0.0
55931.0,STARLINK-5897,PAYLOAD,2024-04-20 14:36:24,14.98332494,0.000243,70.002,239.1771,255.114,104.975,-6.8898e-05,-9.15e-06,0.0,0 STARLINK-5897,1 55931U 23037T   24111.60862026 -.00000915  00000-0 -68898-4 0  9997,2 55931  70.0020 239.1771 0002430 255.1140 104.9750 14.98332494 60426,6950.185,96.107,573.739,570.361,0.0
55931.0,STARLINK-5897,PAYLOAD,2024-04-20 19:24:48,14.98331348,0.0002459,70.0021,238.6718,252.7666,107.3224,-5.5264e-05,-7.52e-06,0.0,0 STARLINK-5897,1 55931U 23037T   24111.80889948 -.00000752  00000-0 -55264-4 0  9993,2 55931  70.0021 238.6718 0002459 252.7666 107.3224 14.98331348 60452,6950.189,96.107,573.763,570.345,0.0
55931.0,STARLINK-5897,PAYLOAD,2024-04-21 14:38:27,14.9830583,0.0002687,70.0024,236.6517,240.531,119.5581,-0.0001901,-2.359e-05,0.0,0 STARLINK-5897,1 55931U 23037T   24112.61004626 -.00002359  00000-0 -19010-3 0  9998,2 55931  70.0024 236.6517 0002687 240.5310 119.5581 14.98305830 60575,6950.268,96.109,574.0,570.265,0.0
55931.0,STARLINK-5897,PAYLOAD,2024-04-21 17:50:44,14.98310425,0.0002599,70.0017,236.3133,252.742,107.3454,-0.00018611,-2.312e-05,0.0,0 STARLINK-5897,1 55931U 23037T   24112.74356692 -.00002312  00000-0 -18611-3 0  9990,2 55931  70.0017 236.3133 0002599 252.7420 107.3454 14.98310425 60937,6950.253,96.108,573.925,570.312,0.0
